KUIPER-00035            
1 63748U 25088AA  25205.04175205  .00004719  00000+0  28076-3 0  9995
2 63748  51.8804  47.7612 0003979  78.7961 281.3463 15.12999149 13617
KUIPER-00037            
1 63749U 25088AB  25205.25003472 -.00676846  00000+0 -40212-1 0  9997
2 63749  51.8841  46.2040 0003695 358.8939 284.2213 15.13231337 14435
KUIPER-00038            
1 63750U 25088AC  25204.80026216 -.00000423  00000+0 -75287-6 0  9997
2 63750  51.8717  43.1935 0004787  60.0913 300.0549 15.37671451 13445
KUIPER-00039            
1 64500U 25134A   25204.66720103  .00025108  00000+0  73836-3 0  9993
2 64500  51.8678 185.4515 0007325 221.9248 138.1177 15.34918055  5886
KUIPER-00040            
1 64501U 25134B   25205.25003472  .00011681  00000+0  43158-3 0  9998
2 64501  51.8677 183.0540 0011392 238.4355 273.9233 15.28109940  5507
KUIPER-00041            
1 64502U 25134C   25205.23588617 -.00306177  00000+0 -13552-1 0  9998
2 64502  51.8702 183.2065 0009047 222.3665 137.6617 15.22496375  5508
KUIPER-00042            
1 64503U 25134D   25205.19436606 -.00310739  00000+0 -97545-2 0  9998
2 64503  51.8651 182.9764 0008156 224.8208 135.2119 15.33719422  5508
KUIPER-00043            
1 64504U 25134E   25204.92921640  .00032671  00000+0  96052-3 0  9993
2 64504  51.8684 184.2105 0007684 216.6529 143.3932 15.34783063  5921
